{
  "type": "FeatureCollection",
  "features": [
    {
      "type": "Feature",
      "properties": {
        "norad_id": 66747,
        "name": "W-SERIES 5",
        "group": "last-30-days",
        "lat": -76.2864114726096,
        "lon": 105.12655369036894,
        "alt_km": 520.5779116717158,
        "timestamp": "2025-12-27T05:29:37.916642+00:00",
        "meta_object_name": "W-SERIES 5",
        "meta_object_id": "2025-276CK",
        "meta_epoch": "2025-12-26T21:55:36.530400",
        "meta_mean_motion": 15.17570657,
        "meta_eccentricity": 0.00016165,
        "meta_inclination": 97.4405,
        "meta_ra_of_asc_node": 72.4357,
        "meta_arg_of_pericenter": 189.0797,
        "meta_mean_anomaly": 171.0408,
        "meta_ephemeris_type": 0,
        "meta_classification_type": "U",
        "meta_norad_cat_id": 66747,
        "meta_element_set_no": 999,
        "meta_rev_at_epoch": 427,
        "meta_bstar": 0.00058461947,
        "meta_mean_motion_dot": 0.00011685,
        "meta_mean_motion_ddot": 0,
        "tle_line1": "1 66747U 25276CK  25360.91361725  .00011685  00000+0  58462-3 0  9990",
        "tle_line2": "2 66747  97.4405  72.4357 0001616 189.0797 171.0408 15.17570657  4272"
      },
      "geometry": {
        "type": "Point",
        "coordinates": [
          105.12655369036894,
          -76.2864114726096
        ]
      }
    },
    {
      "type": "Feature",
      "properties": {
        "norad_id": 66748,
        "name": "TRANSPORTER-15CL",
        "group": "last-30-days",
        "lat": -14.772368739735532,
        "lon": 74.74475069823369,
        "alt_km": 515.7664112105649,
        "timestamp": "2025-12-27T05:29:37.916652+00:00",
        "meta_object_name": "TRANSPORTER-15CL",
        "meta_object_id": "2025-276CL",
        "meta_epoch": "2025-12-26T21:39:09.775008",
        "meta_mean_motion": 15.1867376,
        "meta_eccentricity": 0.000221,
        "meta_inclination": 97.4399,
        "meta_ra_of_asc_node": 72.4485,
        "meta_arg_of_pericenter": 205.5331,
        "meta_mean_anomaly": 154.5794,
        "meta_ephemeris_type": 0,
        "meta_classification_type": "U",
        "meta_norad_cat_id": 66748,
        "meta_element_set_no": 999,
        "meta_rev_at_epoch": 427,
        "meta_bstar": 0.0012173242,
        "meta_mean_motion_dot": 0.00025235,
        "meta_mean_motion_ddot": 0,
        "tle_line1": "1 66748U 25276CL  25360.90219647  .00025235  00000+0  12173-2 0  9999",
        "tle_line2": "2 66748  97.4399  72.4485 0002210 205.5331 154.5794 15.18673760  4270"
      },
      "geometry": {
        "type": "Point",
        "coordinates": [
          74.74475069823369,
          -14.772368739735532
        ]
      }
    },
    {
      "type": "Feature",
      "properties": {
        "norad_id": 66749,
        "name": "TRANSPORTER-15CM",
        "group": "last-30-days",
        "lat": -49.717679932421376,
        "lon": 81.62079004619393,
        "alt_km": 520.1178722210698,
        "timestamp": "2025-12-27T05:29:37.916667+00:00",
        "meta_object_name": "TRANSPORTER-15CM",
        "meta_object_id": "2025-276CM",
        "meta_epoch": "2025-12-26T21:48:16.680096",
        "meta_mean_motion": 15.17930831,
        "meta_eccentricity": 0.00022239,
        "meta_inclination": 97.4393,
        "meta_ra_of_asc_node": 72.4371,
        "meta_arg_of_pericenter": 174.9542,
        "meta_mean_anomaly": 185.1715,
        "meta_ephemeris_type": 0,
        "meta_classification_type": "U",
        "meta_norad_cat_id": 66749,
        "meta_element_set_no": 999,
        "meta_rev_at_epoch": 427,
        "meta_bstar": 0.0004373935,
        "meta_mean_motion_dot": 8.813e-05,
        "meta_mean_motion_ddot": 0,
        "tle_line1": "1 66749U 25276CM  25360.90852639  .00008813  00000+0  43739-3 0  9990",
        "tle_line2": "2 66749  97.4393  72.4371 0002223 174.9542 185.1715 15.17930831  4273"
      },
      "geometry": {
        "type": "Point",
        "coordinates": [
          81.62079004619393,
          -49.717679932421376
        ]
      }
    },
    {
      "type": "Feature",
      "properties": {
        "norad_id": 66750,
        "name": "TRANSPORTER-15CN",
        "group": "last-30-days",
        "lat": -30.426664936171143,
        "lon": 77.17706081512479,
        "alt_km": 519.099815848288,
        "timestamp": "2025-12-27T05:29:37.916677+00:00",
        "meta_object_name": "TRANSPORTER-15CN",
        "meta_object_id": "2025-276CN",
        "meta_epoch": "2025-12-26T21:43:12.285984",
        "meta_mean_motion": 15.18215054,
        "meta_eccentricity": 0.00031655,
        "meta_inclination": 97.4419,
        "meta_ra_of_asc_node": 72.4555,
        "meta_arg_of_pericenter": 172.0716,
        "meta_mean_anomaly": 188.0569,
        "meta_ephemeris_type": 0,
        "meta_classification_type": "U",
        "meta_norad_cat_id": 66750,
        "meta_element_set_no": 999,
        "meta_rev_at_epoch": 427,
        "meta_bstar": 0.0055641907,
        "meta_mean_motion_dot": 0.00115494,
        "meta_mean_motion_ddot": 0,
        "tle_line1": "1 66750U 25276CN  25360.90500331  .00115494  00000+0  55642-2 0  9990",
        "tle_line2": "2 66750  97.4419  72.4555 0003165 172.0716 188.0569 15.18215054  4279"
      },
      "geometry": {
        "type": "Point",
        "coordinates": [
          77.17706081512479,
          -30.426664936171143
        ]
      }
    },
    {
      "type": "Feature",
      "properties": {
        "norad_id": 66751,
        "name": "ICEYE-X58",
        "group": "last-30-days",
        "lat": -52.783821225332126,
        "lon": 82.66772658601862,
        "alt_km": 520.259821648383,
        "timestamp": "2025-12-27T05:29:37.916687+00:00",
        "meta_object_name": "ICEYE-X58",
        "meta_object_id": "2025-276CP",
        "meta_epoch": "2025-12-26T21:49:04.708992",
        "meta_mean_motion": 15.17839203,
        "meta_eccentricity": 0.00027144,
        "meta_inclination": 97.4405,
        "meta_ra_of_asc_node": 72.445,
        "meta_arg_of_pericenter": 189.7895,
        "meta_mean_anomaly": 170.3286,
        "meta_ephemeris_type": 0,
        "meta_classification_type": "U",
        "meta_norad_cat_id": 66751,
        "meta_element_set_no": 999,
        "meta_rev_at_epoch": 427,
        "meta_bstar": 0.00031877972,
        "meta_mean_motion_dot": 6.386e-05,
        "meta_mean_motion_ddot": 0,
        "tle_line1": "1 66751U 25276CP  25360.90908228  .00006386  00000+0  31878-3 0  9993",
        "tle_line2": "2 66751  97.4405  72.4450 0002714 189.7895 170.3286 15.17839203  4278"
      },
      "geometry": {
        "type": "Point",
        "coordinates": [
          82.66772658601862,
          -52.783821225332126
        ]
      }
    },
    {
      "type": "Feature",
      "properties": {
        "norad_id": 66752,
        "name": "ICEYE-X59",
        "group": "last-30-days",
        "lat": -71.58057791227375,
        "lon": 95.8536373386223,
        "alt_km": 519.8273896803621,
        "timestamp": "2025-12-27T05:29:37.916697+00:00",
        "meta_object_name": "ICEYE-X59",
        "meta_object_id": "2025-276CQ",
        "meta_epoch": "2025-12-26T21:54:12.971232",
        "meta_mean_motion": 15.17645816,
        "meta_eccentricity": 0.00020974,
        "meta_inclination": 97.4399,
        "meta_ra_of_asc_node": 72.44,
        "meta_arg_of_pericenter": 215.0917,
        "meta_mean_anomaly": 145.0179,
        "meta_ephemeris_type": 0,
        "meta_classification_type": "U",
        "meta_norad_cat_id": 66752,
        "meta_element_set_no": 999,
        "meta_rev_at_epoch": 427,
        "meta_bstar": 0.00053592154,
        "meta_mean_motion_dot": 0.00010728,
        "meta_mean_motion_ddot": 0,
        "tle_line1": "1 66752U 25276CQ  25360.91265013  .00010728  00000+0  53592-3 0  9995",
        "tle_line2": "2 66752  97.4399  72.4400 0002097 215.0917 145.0179 15.17645816  4273"
      },
      "geometry": {
        "type": "Point",
        "coordinates": [
          95.8536373386223,
          -71.58057791227375
        ]
      }
    },
    {
      "type": "Feature",
      "properties": {
        "norad_id": 66753,
        "name": "ICEYE-X60",
        "group": "last-30-days",
        "lat": -79.7732123357761,
        "lon": -153.67704087492686,
        "alt_km": 520.2214099026905,
        "timestamp": "2025-12-27T05:29:37.916709+00:00",
        "meta_object_name": "ICEYE-X60",
        "meta_object_id": "2025-276CR",
        "meta_epoch": "2025-12-26T22:00:28.285920",
        "meta_mean_motion": 15.17424224,
        "meta_eccentricity": 0.00011674,
        "meta_inclination": 97.44,
        "meta_ra_of_asc_node": 72.4302,
        "meta_arg_of_pericenter": 242.6882,
        "meta_mean_anomaly": 117.4233,
        "meta_ephemeris_type": 0,
        "meta_classification_type": "U",
        "meta_norad_cat_id": 66753,
        "meta_element_set_no": 999,
        "meta_rev_at_epoch": 427,
        "meta_bstar": 0.00050433965,
        "meta_mean_motion_dot": 0.00010027,
        "meta_mean_motion_ddot": 0,
        "tle_line1": "1 66753U 25276CR  25360.91699405  .00010027  00000+0  50434-3 0  9996",
        "tle_line2": "2 66753  97.4400  72.4302 0001167 242.6882 117.4233 15.17424224  4274"
      },
      "geometry": {
        "type": "Point",
        "coordinates": [
          -153.67704087492686,
          -79.7732123357761
        ]
      }
    }
  ]
}